{
  "type": "FeatureCollection",
  "features": [
    {
      "type": "Feature",
      "geometry": {
        "type": "Point",
        "coordinates": [
          -2.08,
          57.14
        ]
      },
      "properties": {
        "Monitoring_programme": "UK National Tide Gauge Network",
        "Station_ID": "Aberdeen",
        "Start_date": 1930,
        "End_date": "Present",
        "Frequency": 15,
        "Organisation": "Environment Agency",
        "URL": "https://ntslf.org/tides/uk-network/portinfo?port=Aberdeen",
        "Notes": null,
        "Sea_level": 1,
        "Tide_regime": 1,
        "Wave_height": null,
        "Wave_period": null,
        "Wave_direction": null,
        "Currents": null,
        "Temperature": null,
        "Salinity": null,
        "Turbidity": null,
        "Suspended_sediment_concentation": null,
        "Fluorecnce": null,
        "Chlorophyll": null,
        "PAR_irradiance": null,
        "Alkalinity__acidity__pH": null,
        "Dissolved_inorganic_phosphorus": null,
        "Dissolved_inorganic_silicate": null,
        "Total_oxidised_nitrogen": null,
        "Ammonia_concentration": null,
        "Nitrate": null,
        "Dissolved_oxygen": null,
        "Carbon_concentrations_in_sediment": null,
        "Nitrogen_concentrations_in_sediment": null,
        "Sediment_grain_size": null,
        "Air_pressure": null,
        "Air_temperature": null,
        "Atmospheric_humidity": null,
        "Atmospheric_visability_and_transparency": null,
        "Cloud_cover__height_and_extent": null,
        "Cloud_type": null,
        "Wind_speed": null,
        "Wind_direction": null,
        "Habitat_characterisation": null,
        "Habitat_extent": null,
        "Habitat_condition": null,
        "Phytoplankton_adundance": null,
        "Phytoplankton_toxins": null,
        "Phytoplankton_taxonomy": null,
        "Seagrass_abundance": null,
        "Macroalgae_abundance": null,
        "Macroalgae_taxonomy": null,
        "Zooplankton_abundance": null,
        "Zooplankton_taxonomy": null,
        "Zoobenthos_abundance": null,
        "Zoobenthos_taxonomy": null,
        "Macroinvertabrates___abundance": null,
        "Mussels___morphology": null,
        "Bird_abundance": null,
        "Birds_taxonomy": null,
        "Birds_mortality": null,
        "Cetacean_abundance": null,
        "Cetacean_identification": null,
        "Cetacean_mortality": null,
        "Fish_abundance": null,
        "Fish_taxonomy_related_counts": null,
        "Fish_morphology__age_and_physiology": null,
        "Fish_mortality": null,
        "Seal_abundance": null,
        "Seal_behaviour": null,
        "Seal_morphology_and_physiology": null,
        "Seal_mortality": null,
        "Reptile_abundance": null,
        "Reptile_mortality": null,
        "Abundance": null,
        "Composition": null,
        "Concentration": null,
        "Concentration_1": null,
        "Concentration_12": null,
        "Faecal_indicator_bacteria": null,
        "Bathymetry": null,
        "Topography": null,
        "Erosion": null,
        "Mean_high_water_springs": null,
        "Vegetation_edge": null,
        "Cliff_position": null,
        "Beach_volume": null,
        "Channel_morphology": null
      }
    },
    {
      "type": "Feature",
      "geometry": {
        "type": "Point",
        "coordinates": [
          -3.18,
          55.99
        ]
      },
      "properties": {
        "Monitoring_programme": "UK National Tide Gauge Network",
        "Station_ID": "Leith",
        "Start_date": 1981,
        "End_date": "Present",
        "Frequency": 15,
        "Organisation": "Environment Agency",
        "URL": "https://ntslf.org/tides/uk-network/portinfo?port=Leith",
        "Notes": null,
        "Sea_level": 1,
        "Tide_regime": 1,
        "Wave_height": null,
        "Wave_period": null,
        "Wave_direction": null,
        "Currents": null,
        "Temperature": null,
        "Salinity": null,
        "Turbidity": null,
        "Suspended_sediment_concentation": null,
        "Fluorecnce": null,
        "Chlorophyll": null,
        "PAR_irradiance": null,
        "Alkalinity__acidity__pH": null,
        "Dissolved_inorganic_phosphorus": null,
        "Dissolved_inorganic_silicate": null,
        "Total_oxidised_nitrogen": null,
        "Ammonia_concentration": null,
        "Nitrate": null,
        "Dissolved_oxygen": null,
        "Carbon_concentrations_in_sediment": null,
        "Nitrogen_concentrations_in_sediment": null,
        "Sediment_grain_size": null,
        "Air_pressure": null,
        "Air_temperature": null,
        "Atmospheric_humidity": null,
        "Atmospheric_visability_and_transparency": null,
        "Cloud_cover__height_and_extent": null,
        "Cloud_type": null,
        "Wind_speed": null,
        "Wind_direction": null,
        "Habitat_characterisation": null,
        "Habitat_extent": null,
        "Habitat_condition": null,
        "Phytoplankton_adundance": null,
        "Phytoplankton_toxins": null,
        "Phytoplankton_taxonomy": null,
        "Seagrass_abundance": null,
        "Macroalgae_abundance": null,
        "Macroalgae_taxonomy": null,
        "Zooplankton_abundance": null,
        "Zooplankton_taxonomy": null,
        "Zoobenthos_abundance": null,
        "Zoobenthos_taxonomy": null,
        "Macroinvertabrates___abundance": null,
        "Mussels___morphology": null,
        "Bird_abundance": null,
        "Birds_taxonomy": null,
        "Birds_mortality": null,
        "Cetacean_abundance": null,
        "Cetacean_identification": null,
        "Cetacean_mortality": null,
        "Fish_abundance": null,
        "Fish_taxonomy_related_counts": null,
        "Fish_morphology__age_and_physiology": null,
        "Fish_mortality": null,
        "Seal_abundance": null,
        "Seal_behaviour": null,
        "Seal_morphology_and_physiology": null,
        "Seal_mortality": null,
        "Reptile_abundance": null,
        "Reptile_mortality": null,
        "Abundance": null,
        "Composition": null,
        "Concentration": null,
        "Concentration_1": null,
        "Concentration_12": null,
        "Faecal_indicator_bacteria": null,
        "Bathymetry": null,
        "Topography": null,
        "Erosion": null,
        "Mean_high_water_springs": null,
        "Vegetation_edge": null,
        "Cliff_position": null,
        "Beach_volume": null,
        "Channel_morphology": null
      }
    },
    {
      "type": "Feature",
      "geometry": {
        "type": "Point",
        "coordinates": [
          -1.14,
          60.16
        ]
      },
      "properties": {
        "Monitoring_programme": "UK National Tide Gauge Network",
        "Station_ID": "Lerwick",
        "Start_date": 1959,
        "End_date": "Present",
        "Frequency": 15,
        "Organisation": "Environment Agency",
        "URL": "https://ntslf.org/tides/uk-network/portinfo?port=Lerwick",
        "Notes": null,
        "Sea_level": 1,
        "Tide_regime": 1,
        "Wave_height": null,
        "Wave_period": null,
        "Wave_direction": null,
        "Currents": null,
        "Temperature": null,
        "Salinity": null,
        "Turbidity": null,
        "Suspended_sediment_concentation": null,
        "Fluorecnce": null,
        "Chlorophyll": null,
        "PAR_irradiance": null,
        "Alkalinity__acidity__pH": null,
        "Dissolved_inorganic_phosphorus": null,
        "Dissolved_inorganic_silicate": null,
        "Total_oxidised_nitrogen": null,
        "Ammonia_concentration": null,
        "Nitrate": null,
        "Dissolved_oxygen": null,
        "Carbon_concentrations_in_sediment": null,
        "Nitrogen_concentrations_in_sediment": null,
        "Sediment_grain_size": null,
        "Air_pressure": null,
        "Air_temperature": null,
        "Atmospheric_humidity": null,
        "Atmospheric_visability_and_transparency": null,
        "Cloud_cover__height_and_extent": null,
        "Cloud_type": null,
        "Wind_speed": null,
        "Wind_direction": null,
        "Habitat_characterisation": null,
        "Habitat_extent": null,
        "Habitat_condition": null,
        "Phytoplankton_adundance": null,
        "Phytoplankton_toxins": null,
        "Phytoplankton_taxonomy": null,
        "Seagrass_abundance": null,
        "Macroalgae_abundance": null,
        "Macroalgae_taxonomy": null,
        "Zooplankton_abundance": null,
        "Zooplankton_taxonomy": null,
        "Zoobenthos_abundance": null,
        "Zoobenthos_taxonomy": null,
        "Macroinvertabrates___abundance": null,
        "Mussels___morphology": null,
        "Bird_abundance": null,
        "Birds_taxonomy": null,
        "Birds_mortality": null,
        "Cetacean_abundance": null,
        "Cetacean_identification": null,
        "Cetacean_mortality": null,
        "Fish_abundance": null,
        "Fish_taxonomy_related_counts": null,
        "Fish_morphology__age_and_physiology": null,
        "Fish_mortality": null,
        "Seal_abundance": null,
        "Seal_behaviour": null,
        "Seal_morphology_and_physiology": null,
        "Seal_mortality": null,
        "Reptile_abundance": null,
        "Reptile_mortality": null,
        "Abundance": null,
        "Composition": null,
        "Concentration": null,
        "Concentration_1": null,
        "Concentration_12": null,
        "Faecal_indicator_bacteria": null,
        "Bathymetry": null,
        "Topography": null,
        "Erosion": null,
        "Mean_high_water_springs": null,
        "Vegetation_edge": null,
        "Cliff_position": null,
        "Beach_volume": null,
        "Channel_morphology": null
      }
    },
    {
      "type": "Feature",
      "geometry": {
        "type": "Point",
        "coordinates": [
          -4.91,
          55.75
        ]
      },
      "properties": {
        "Monitoring_programme": "UK National Tide Gauge Network",
        "Station_ID": "Millport",
        "Start_date": 1978,
        "End_date": "Present",
        "Frequency": 15,
        "Organisation": "Environment Agency",
        "URL": "https://ntslf.org/tides/uk-network/portinfo?port=Millport",
        "Notes": null,
        "Sea_level": 1,
        "Tide_regime": 1,
        "Wave_height": null,
        "Wave_period": null,
        "Wave_direction": null,
        "Currents": null,
        "Temperature": null,
        "Salinity": null,
        "Turbidity": null,
        "Suspended_sediment_concentation": null,
        "Fluorecnce": null,
        "Chlorophyll": null,
        "PAR_irradiance": null,
        "Alkalinity__acidity__pH": null,
        "Dissolved_inorganic_phosphorus": null,
        "Dissolved_inorganic_silicate": null,
        "Total_oxidised_nitrogen": null,
        "Ammonia_concentration": null,
        "Nitrate": null,
        "Dissolved_oxygen": null,
        "Carbon_concentrations_in_sediment": null,
        "Nitrogen_concentrations_in_sediment": null,
        "Sediment_grain_size": null,
        "Air_pressure": null,
        "Air_temperature": null,
        "Atmospheric_humidity": null,
        "Atmospheric_visability_and_transparency": null,
        "Cloud_cover__height_and_extent": null,
        "Cloud_type": null,
        "Wind_speed": null,
        "Wind_direction": null,
        "Habitat_characterisation": null,
        "Habitat_extent": null,
        "Habitat_condition": null,
        "Phytoplankton_adundance": null,
        "Phytoplankton_toxins": null,
        "Phytoplankton_taxonomy": null,
        "Seagrass_abundance": null,
        "Macroalgae_abundance": null,
        "Macroalgae_taxonomy": null,
        "Zooplankton_abundance": null,
        "Zooplankton_taxonomy": null,
        "Zoobenthos_abundance": null,
        "Zoobenthos_taxonomy": null,
        "Macroinvertabrates___abundance": null,
        "Mussels___morphology": null,
        "Bird_abundance": null,
        "Birds_taxonomy": null,
        "Birds_mortality": null,
        "Cetacean_abundance": null,
        "Cetacean_identification": null,
        "Cetacean_mortality": null,
        "Fish_abundance": null,
        "Fish_taxonomy_related_counts": null,
        "Fish_morphology__age_and_physiology": null,
        "Fish_mortality": null,
        "Seal_abundance": null,
        "Seal_behaviour": null,
        "Seal_morphology_and_physiology": null,
        "Seal_mortality": null,
        "Reptile_abundance": null,
        "Reptile_mortality": null,
        "Abundance": null,
        "Composition": null,
        "Concentration": null,
        "Concentration_1": null,
        "Concentration_12": null,
        "Faecal_indicator_bacteria": null,
        "Bathymetry": null,
        "Topography": null,
        "Erosion": null,
        "Mean_high_water_springs": null,
        "Vegetation_edge": null,
        "Cliff_position": null,
        "Beach_volume": null,
        "Channel_morphology": null
      }
    },
    {
      "type": "Feature",
      "geometry": {
        "type": "Point",
        "coordinates": [
          -6.38,
          58.22
        ]
      },
      "properties": {
        "Monitoring_programme": "UK National Tide Gauge Network",
        "Station_ID": "Stornoway",
        "Start_date": 1976,
        "End_date": "2025",
        "Frequency": 15,
        "Organisation": "Environment Agency",
        "URL": "https://ntslf.org/tides/uk-network/portinfo?port=Stornaway",
        "Notes": null,
        "Sea_level": 1,
        "Tide_regime": 1,
        "Wave_height": null,
        "Wave_period": null,
        "Wave_direction": null,
        "Currents": null,
        "Temperature": null,
        "Salinity": null,
        "Turbidity": null,
        "Suspended_sediment_concentation": null,
        "Fluorecnce": null,
        "Chlorophyll": null,
        "PAR_irradiance": null,
        "Alkalinity__acidity__pH": null,
        "Dissolved_inorganic_phosphorus": null,
        "Dissolved_inorganic_silicate": null,
        "Total_oxidised_nitrogen": null,
        "Ammonia_concentration": null,
        "Nitrate": null,
        "Dissolved_oxygen": null,
        "Carbon_concentrations_in_sediment": null,
        "Nitrogen_concentrations_in_sediment": null,
        "Sediment_grain_size": null,
        "Air_pressure": null,
        "Air_temperature": null,
        "Atmospheric_humidity": null,
        "Atmospheric_visability_and_transparency": null,
        "Cloud_cover__height_and_extent": null,
        "Cloud_type": null,
        "Wind_speed": null,
        "Wind_direction": null,
        "Habitat_characterisation": null,
        "Habitat_extent": null,
        "Habitat_condition": null,
        "Phytoplankton_adundance": null,
        "Phytoplankton_toxins": null,
        "Phytoplankton_taxonomy": null,
        "Seagrass_abundance": null,
        "Macroalgae_abundance": null,
        "Macroalgae_taxonomy": null,
        "Zooplankton_abundance": null,
        "Zooplankton_taxonomy": null,
        "Zoobenthos_abundance": null,
        "Zoobenthos_taxonomy": null,
        "Macroinvertabrates___abundance": null,
        "Mussels___morphology": null,
        "Bird_abundance": null,
        "Birds_taxonomy": null,
        "Birds_mortality": null,
        "Cetacean_abundance": null,
        "Cetacean_identification": null,
        "Cetacean_mortality": null,
        "Fish_abundance": null,
        "Fish_taxonomy_related_counts": null,
        "Fish_morphology__age_and_physiology": null,
        "Fish_mortality": null,
        "Seal_abundance": null,
        "Seal_behaviour": null,
        "Seal_morphology_and_physiology": null,
        "Seal_mortality": null,
        "Reptile_abundance": null,
        "Reptile_mortality": null,
        "Abundance": null,
        "Composition": null,
        "Concentration": null,
        "Concentration_1": null,
        "Concentration_12": null,
        "Faecal_indicator_bacteria": null,
        "Bathymetry": null,
        "Topography": null,
        "Erosion": null,
        "Mean_high_water_springs": null,
        "Vegetation_edge": null,
        "Cliff_position": null,
        "Beach_volume": null,
        "Channel_morphology": null
      }
    },
    {
      "type": "Feature",
      "geometry": {
        "type": "Point",
        "coordinates": [
          -6.07,
          56.62
        ]
      },
      "properties": {
        "Monitoring_programme": "UK National Tide Gauge Network",
        "Station_ID": "Tobermory",
        "Start_date": 1990,
        "End_date": "Present",
        "Frequency": 15,
        "Organisation": "Environment Agency",
        "URL": "https://ntslf.org/tides/uk-network/portinfo?port=Tobermory",
        "Notes": null,
        "Sea_level": 1,
        "Tide_regime": 1,
        "Wave_height": null,
        "Wave_period": null,
        "Wave_direction": null,
        "Currents": null,
        "Temperature": null,
        "Salinity": null,
        "Turbidity": null,
        "Suspended_sediment_concentation": null,
        "Fluorecnce": null,
        "Chlorophyll": null,
        "PAR_irradiance": null,
        "Alkalinity__acidity__pH": null,
        "Dissolved_inorganic_phosphorus": null,
        "Dissolved_inorganic_silicate": null,
        "Total_oxidised_nitrogen": null,
        "Ammonia_concentration": null,
        "Nitrate": null,
        "Dissolved_oxygen": null,
        "Carbon_concentrations_in_sediment": null,
        "Nitrogen_concentrations_in_sediment": null,
        "Sediment_grain_size": null,
        "Air_pressure": null,
        "Air_temperature": null,
        "Atmospheric_humidity": null,
        "Atmospheric_visability_and_transparency": null,
        "Cloud_cover__height_and_extent": null,
        "Cloud_type": null,
        "Wind_speed": null,
        "Wind_direction": null,
        "Habitat_characterisation": null,
        "Habitat_extent": null,
        "Habitat_condition": null,
        "Phytoplankton_adundance": null,
        "Phytoplankton_toxins": null,
        "Phytoplankton_taxonomy": null,
        "Seagrass_abundance": null,
        "Macroalgae_abundance": null,
        "Macroalgae_taxonomy": null,
        "Zooplankton_abundance": null,
        "Zooplankton_taxonomy": null,
        "Zoobenthos_abundance": null,
        "Zoobenthos_taxonomy": null,
        "Macroinvertabrates___abundance": null,
        "Mussels___morphology": null,
        "Bird_abundance": null,
        "Birds_taxonomy": null,
        "Birds_mortality": null,
        "Cetacean_abundance": null,
        "Cetacean_identification": null,
        "Cetacean_mortality": null,
        "Fish_abundance": null,
        "Fish_taxonomy_related_counts": null,
        "Fish_morphology__age_and_physiology": null,
        "Fish_mortality": null,
        "Seal_abundance": null,
        "Seal_behaviour": null,
        "Seal_morphology_and_physiology": null,
        "Seal_mortality": null,
        "Reptile_abundance": null,
        "Reptile_mortality": null,
        "Abundance": null,
        "Composition": null,
        "Concentration": null,
        "Concentration_1": null,
        "Concentration_12": null,
        "Faecal_indicator_bacteria": null,
        "Bathymetry": null,
        "Topography": null,
        "Erosion": null,
        "Mean_high_water_springs": null,
        "Vegetation_edge": null,
        "Cliff_position": null,
        "Beach_volume": null,
        "Channel_morphology": null
      }
    },
    {
      "type": "Feature",
      "geometry": {
        "type": "Point",
        "coordinates": [
          -5.15,
          57.9
        ]
      },
      "properties": {
        "Monitoring_programme": "UK National Tide Gauge Network",
        "Station_ID": "Ullapool",
        "Start_date": 1966,
        "End_date": "Present",
        "Frequency": 15,
        "Organisation": "Environment Agency",
        "URL": "https://ntslf.org/tides/uk-network/portinfo?port=Ullapool",
        "Notes": null,
        "Sea_level": 1,
        "Tide_regime": 1,
        "Wave_height": null,
        "Wave_period": null,
        "Wave_direction": null,
        "Currents": null,
        "Temperature": null,
        "Salinity": null,
        "Turbidity": null,
        "Suspended_sediment_concentation": null,
        "Fluorecnce": null,
        "Chlorophyll": null,
        "PAR_irradiance": null,
        "Alkalinity__acidity__pH": null,
        "Dissolved_inorganic_phosphorus": null,
        "Dissolved_inorganic_silicate": null,
        "Total_oxidised_nitrogen": null,
        "Ammonia_concentration": null,
        "Nitrate": null,
        "Dissolved_oxygen": null,
        "Carbon_concentrations_in_sediment": null,
        "Nitrogen_concentrations_in_sediment": null,
        "Sediment_grain_size": null,
        "Air_pressure": null,
        "Air_temperature": null,
        "Atmospheric_humidity": null,
        "Atmospheric_visability_and_transparency": null,
        "Cloud_cover__height_and_extent": null,
        "Cloud_type": null,
        "Wind_speed": null,
        "Wind_direction": null,
        "Habitat_characterisation": null,
        "Habitat_extent": null,
        "Habitat_condition": null,
        "Phytoplankton_adundance": null,
        "Phytoplankton_toxins": null,
        "Phytoplankton_taxonomy": null,
        "Seagrass_abundance": null,
        "Macroalgae_abundance": null,
        "Macroalgae_taxonomy": null,
        "Zooplankton_abundance": null,
        "Zooplankton_taxonomy": null,
        "Zoobenthos_abundance": null,
        "Zoobenthos_taxonomy": null,
        "Macroinvertabrates___abundance": null,
        "Mussels___morphology": null,
        "Bird_abundance": null,
        "Birds_taxonomy": null,
        "Birds_mortality": null,
        "Cetacean_abundance": null,
        "Cetacean_identification": null,
        "Cetacean_mortality": null,
        "Fish_abundance": null,
        "Fish_taxonomy_related_counts": null,
        "Fish_morphology__age_and_physiology": null,
        "Fish_mortality": null,
        "Seal_abundance": null,
        "Seal_behaviour": null,
        "Seal_morphology_and_physiology": null,
        "Seal_mortality": null,
        "Reptile_abundance": null,
        "Reptile_mortality": null,
        "Abundance": null,
        "Composition": null,
        "Concentration": null,
        "Concentration_1": null,
        "Concentration_12": null,
        "Faecal_indicator_bacteria": null,
        "Bathymetry": null,
        "Topography": null,
        "Erosion": null,
        "Mean_high_water_springs": null,
        "Vegetation_edge": null,
        "Cliff_position": null,
        "Beach_volume": null,
        "Channel_morphology": null
      }
    },
    {
      "type": "Feature",
      "geometry": {
        "type": "Point",
        "coordinates": [
          -3.09,
          58.44
        ]
      },
      "properties": {
        "Monitoring_programme": "UK National Tide Gauge Network",
        "Station_ID": "Wick",
        "Start_date": 1965,
        "End_date": "Present",
        "Frequency": 15,
        "Organisation": "Environment Agency",
        "URL": "https://ntslf.org/tides/uk-network/portinfo?port=Wick",
        "Notes": null,
        "Sea_level": 1,
        "Tide_regime": 1,
        "Wave_height": null,
        "Wave_period": null,
        "Wave_direction": null,
        "Currents": null,
        "Temperature": null,
        "Salinity": null,
        "Turbidity": null,
        "Suspended_sediment_concentation": null,
        "Fluorecnce": null,
        "Chlorophyll": null,
        "PAR_irradiance": null,
        "Alkalinity__acidity__pH": null,
        "Dissolved_inorganic_phosphorus": null,
        "Dissolved_inorganic_silicate": null,
        "Total_oxidised_nitrogen": null,
        "Ammonia_concentration": null,
        "Nitrate": null,
        "Dissolved_oxygen": null,
        "Carbon_concentrations_in_sediment": null,
        "Nitrogen_concentrations_in_sediment": null,
        "Sediment_grain_size": null,
        "Air_pressure": null,
        "Air_temperature": null,
        "Atmospheric_humidity": null,
        "Atmospheric_visability_and_transparency": null,
        "Cloud_cover__height_and_extent": null,
        "Cloud_type": null,
        "Wind_speed": null,
        "Wind_direction": null,
        "Habitat_characterisation": null,
        "Habitat_extent": null,
        "Habitat_condition": null,
        "Phytoplankton_adundance": null,
        "Phytoplankton_toxins": null,
        "Phytoplankton_taxonomy": null,
        "Seagrass_abundance": null,
        "Macroalgae_abundance": null,
        "Macroalgae_taxonomy": null,
        "Zooplankton_abundance": null,
        "Zooplankton_taxonomy": null,
        "Zoobenthos_abundance": null,
        "Zoobenthos_taxonomy": null,
        "Macroinvertabrates___abundance": null,
        "Mussels___morphology": null,
        "Bird_abundance": null,
        "Birds_taxonomy": null,
        "Birds_mortality": null,
        "Cetacean_abundance": null,
        "Cetacean_identification": null,
        "Cetacean_mortality": null,
        "Fish_abundance": null,
        "Fish_taxonomy_related_counts": null,
        "Fish_morphology__age_and_physiology": null,
        "Fish_mortality": null,
        "Seal_abundance": null,
        "Seal_behaviour": null,
        "Seal_morphology_and_physiology": null,
        "Seal_mortality": null,
        "Reptile_abundance": null,
        "Reptile_mortality": null,
        "Abundance": null,
        "Composition": null,
        "Concentration": null,
        "Concentration_1": null,
        "Concentration_12": null,
        "Faecal_indicator_bacteria": null,
        "Bathymetry": null,
        "Topography": null,
        "Erosion": null,
        "Mean_high_water_springs": null,
        "Vegetation_edge": null,
        "Cliff_position": null,
        "Beach_volume": null,
        "Channel_morphology": null
      }
    },
    {
      "type": "Feature",
      "geometry": {
        "type": "Point",
        "coordinates": [
          -7.17,
          57.71
        ]
      },
      "properties": {
        "Monitoring_programme": "SEPA Tide Gauge Network",
        "Station_ID": "Berneray Tide Gauge",
        "Start_date": 2014,
        "End_date": "Present",
        "Frequency": 15,
        "Organisation": "SEPA",
        "URL": "https://waterlevels.sepa.org.uk/Station/511675/",
        "Notes": null,
        "Sea_level": 1,
        "Tide_regime": 1,
        "Wave_height": null,
        "Wave_period": null,
        "Wave_direction": null,
        "Currents": null,
        "Temperature": null,
        "Salinity": null,
        "Turbidity": null,
        "Suspended_sediment_concentation": null,
        "Fluorecnce": null,
        "Chlorophyll": null,
        "PAR_irradiance": null,
        "Alkalinity__acidity__pH": null,
        "Dissolved_inorganic_phosphorus": null,
        "Dissolved_inorganic_silicate": null,
        "Total_oxidised_nitrogen": null,
        "Ammonia_concentration": null,
        "Nitrate": null,
        "Dissolved_oxygen": null,
        "Carbon_concentrations_in_sediment": null,
        "Nitrogen_concentrations_in_sediment": null,
        "Sediment_grain_size": null,
        "Air_pressure": null,
        "Air_temperature": null,
        "Atmospheric_humidity": null,
        "Atmospheric_visability_and_transparency": null,
        "Cloud_cover__height_and_extent": null,
        "Cloud_type": null,
        "Wind_speed": null,
        "Wind_direction": null,
        "Habitat_characterisation": null,
        "Habitat_extent": null,
        "Habitat_condition": null,
        "Phytoplankton_adundance": null,
        "Phytoplankton_toxins": null,
        "Phytoplankton_taxonomy": null,
        "Seagrass_abundance": null,
        "Macroalgae_abundance": null,
        "Macroalgae_taxonomy": null,
        "Zooplankton_abundance": null,
        "Zooplankton_taxonomy": null,
        "Zoobenthos_abundance": null,
        "Zoobenthos_taxonomy": null,
        "Macroinvertabrates___abundance": null,
        "Mussels___morphology": null,
        "Bird_abundance": null,
        "Birds_taxonomy": null,
        "Birds_mortality": null,
        "Cetacean_abundance": null,
        "Cetacean_identification": null,
        "Cetacean_mortality": null,
        "Fish_abundance": null,
        "Fish_taxonomy_related_counts": null,
        "Fish_morphology__age_and_physiology": null,
        "Fish_mortality": null,
        "Seal_abundance": null,
        "Seal_behaviour": null,
        "Seal_morphology_and_physiology": null,
        "Seal_mortality": null,
        "Reptile_abundance": null,
        "Reptile_mortality": null,
        "Abundance": null,
        "Composition": null,
        "Concentration": null,
        "Concentration_1": null,
        "Concentration_12": null,
        "Faecal_indicator_bacteria": null,
        "Bathymetry": null,
        "Topography": null,
        "Erosion": null,
        "Mean_high_water_springs": null,
        "Vegetation_edge": null,
        "Cliff_position": null,
        "Beach_volume": null,
        "Channel_morphology": null
      }
    },
    {
      "type": "Feature",
      "geometry": {
        "type": "Point",
        "coordinates": [
          -7.31,
          57.07
        ]
      },
      "properties": {
        "Monitoring_programme": "SEPA Tide Gauge Network",
        "Station_ID": "Eriskay Tide Gauge",
        "Start_date": 2015,
        "End_date": "Present",
        "Frequency": 15,
        "Organisation": "SEPA",
        "URL": "https://waterlevels.sepa.org.uk/Station/511674/",
        "Notes": null,
        "Sea_level": 1,
        "Tide_regime": 1,
        "Wave_height": null,
        "Wave_period": null,
        "Wave_direction": null,
        "Currents": null,
        "Temperature": null,
        "Salinity": null,
        "Turbidity": null,
        "Suspended_sediment_concentation": null,
        "Fluorecnce": null,
        "Chlorophyll": null,
        "PAR_irradiance": null,
        "Alkalinity__acidity__pH": null,
        "Dissolved_inorganic_phosphorus": null,
        "Dissolved_inorganic_silicate": null,
        "Total_oxidised_nitrogen": null,
        "Ammonia_concentration": null,
        "Nitrate": null,
        "Dissolved_oxygen": null,
        "Carbon_concentrations_in_sediment": null,
        "Nitrogen_concentrations_in_sediment": null,
        "Sediment_grain_size": null,
        "Air_pressure": null,
        "Air_temperature": null,
        "Atmospheric_humidity": null,
        "Atmospheric_visability_and_transparency": null,
        "Cloud_cover__height_and_extent": null,
        "Cloud_type": null,
        "Wind_speed": null,
        "Wind_direction": null,
        "Habitat_characterisation": null,
        "Habitat_extent": null,
        "Habitat_condition": null,
        "Phytoplankton_adundance": null,
        "Phytoplankton_toxins": null,
        "Phytoplankton_taxonomy": null,
        "Seagrass_abundance": null,
        "Macroalgae_abundance": null,
        "Macroalgae_taxonomy": null,
        "Zooplankton_abundance": null,
        "Zooplankton_taxonomy": null,
        "Zoobenthos_abundance": null,
        "Zoobenthos_taxonomy": null,
        "Macroinvertabrates___abundance": null,
        "Mussels___morphology": null,
        "Bird_abundance": null,
        "Birds_taxonomy": null,
        "Birds_mortality": null,
        "Cetacean_abundance": null,
        "Cetacean_identification": null,
        "Cetacean_mortality": null,
        "Fish_abundance": null,
        "Fish_taxonomy_related_counts": null,
        "Fish_morphology__age_and_physiology": null,
        "Fish_mortality": null,
        "Seal_abundance": null,
        "Seal_behaviour": null,
        "Seal_morphology_and_physiology": null,
        "Seal_mortality": null,
        "Reptile_abundance": null,
        "Reptile_mortality": null,
        "Abundance": null,
        "Composition": null,
        "Concentration": null,
        "Concentration_1": null,
        "Concentration_12": null,
        "Faecal_indicator_bacteria": null,
        "Bathymetry": null,
        "Topography": null,
        "Erosion": null,
        "Mean_high_water_springs": null,
        "Vegetation_edge": null,
        "Cliff_position": null,
        "Beach_volume": null,
        "Channel_morphology": null
      }
    },
    {
      "type": "Feature",
      "geometry": {
        "type": "Point",
        "coordinates": [
          -2.09,
          55.87
        ]
      },
      "properties": {
        "Monitoring_programme": "SEPA Tide Gauge Network",
        "Station_ID": "Eyemouth Tide Gauge",
        "Start_date": 2016,
        "End_date": "Present",
        "Frequency": 15,
        "Organisation": "SEPA",
        "URL": "https://waterlevels.sepa.org.uk/station/525180 ",
        "Notes": null,
        "Sea_level": 1,
        "Tide_regime": 1,
        "Wave_height": null,
        "Wave_period": null,
        "Wave_direction": null,
        "Currents": null,
        "Temperature": null,
        "Salinity": null,
        "Turbidity": null,
        "Suspended_sediment_concentation": null,
        "Fluorecnce": null,
        "Chlorophyll": null,
        "PAR_irradiance": null,
        "Alkalinity__acidity__pH": null,
        "Dissolved_inorganic_phosphorus": null,
        "Dissolved_inorganic_silicate": null,
        "Total_oxidised_nitrogen": null,
        "Ammonia_concentration": null,
        "Nitrate": null,
        "Dissolved_oxygen": null,
        "Carbon_concentrations_in_sediment": null,
        "Nitrogen_concentrations_in_sediment": null,
        "Sediment_grain_size": null,
        "Air_pressure": null,
        "Air_temperature": null,
        "Atmospheric_humidity": null,
        "Atmospheric_visability_and_transparency": null,
        "Cloud_cover__height_and_extent": null,
        "Cloud_type": null,
        "Wind_speed": null,
        "Wind_direction": null,
        "Habitat_characterisation": null,
        "Habitat_extent": null,
        "Habitat_condition": null,
        "Phytoplankton_adundance": null,
        "Phytoplankton_toxins": null,
        "Phytoplankton_taxonomy": null,
        "Seagrass_abundance": null,
        "Macroalgae_abundance": null,
        "Macroalgae_taxonomy": null,
        "Zooplankton_abundance": null,
        "Zooplankton_taxonomy": null,
        "Zoobenthos_abundance": null,
        "Zoobenthos_taxonomy": null,
        "Macroinvertabrates___abundance": null,
        "Mussels___morphology": null,
        "Bird_abundance": null,
        "Birds_taxonomy": null,
        "Birds_mortality": null,
        "Cetacean_abundance": null,
        "Cetacean_identification": null,
        "Cetacean_mortality": null,
        "Fish_abundance": null,
        "Fish_taxonomy_related_counts": null,
        "Fish_morphology__age_and_physiology": null,
        "Fish_mortality": null,
        "Seal_abundance": null,
        "Seal_behaviour": null,
        "Seal_morphology_and_physiology": null,
        "Seal_mortality": null,
        "Reptile_abundance": null,
        "Reptile_mortality": null,
        "Abundance": null,
        "Composition": null,
        "Concentration": null,
        "Concentration_1": null,
        "Concentration_12": null,
        "Faecal_indicator_bacteria": null,
        "Bathymetry": null,
        "Topography": null,
        "Erosion": null,
        "Mean_high_water_springs": null,
        "Vegetation_edge": null,
        "Cliff_position": null,
        "Beach_volume": null,
        "Channel_morphology": null
      }
    },
    {
      "type": "Feature",
      "geometry": {
        "type": "Point",
        "coordinates": [
          -4.86,
          55.24
        ]
      },
      "properties": {
        "Monitoring_programme": "SEPA Tide Gauge Network",
        "Station_ID": "Girvan Tide Gauge",
        "Start_date": 1997,
        "End_date": "Present",
        "Frequency": 15,
        "Organisation": "SEPA",
        "URL": "https://waterlevels.sepa.org.uk/Station/133137/",
        "Notes": null,
        "Sea_level": 1,
        "Tide_regime": 1,
        "Wave_height": null,
        "Wave_period": null,
        "Wave_direction": null,
        "Currents": null,
        "Temperature": null,
        "Salinity": null,
        "Turbidity": null,
        "Suspended_sediment_concentation": null,
        "Fluorecnce": null,
        "Chlorophyll": null,
        "PAR_irradiance": null,
        "Alkalinity__acidity__pH": null,
        "Dissolved_inorganic_phosphorus": null,
        "Dissolved_inorganic_silicate": null,
        "Total_oxidised_nitrogen": null,
        "Ammonia_concentration": null,
        "Nitrate": null,
        "Dissolved_oxygen": null,
        "Carbon_concentrations_in_sediment": null,
        "Nitrogen_concentrations_in_sediment": null,
        "Sediment_grain_size": null,
        "Air_pressure": null,
        "Air_temperature": null,
        "Atmospheric_humidity": null,
        "Atmospheric_visability_and_transparency": null,
        "Cloud_cover__height_and_extent": null,
        "Cloud_type": null,
        "Wind_speed": null,
        "Wind_direction": null,
        "Habitat_characterisation": null,
        "Habitat_extent": null,
        "Habitat_condition": null,
        "Phytoplankton_adundance": null,
        "Phytoplankton_toxins": null,
        "Phytoplankton_taxonomy": null,
        "Seagrass_abundance": null,
        "Macroalgae_abundance": null,
        "Macroalgae_taxonomy": null,
        "Zooplankton_abundance": null,
        "Zooplankton_taxonomy": null,
        "Zoobenthos_abundance": null,
        "Zoobenthos_taxonomy": null,
        "Macroinvertabrates___abundance": null,
        "Mussels___morphology": null,
        "Bird_abundance": null,
        "Birds_taxonomy": null,
        "Birds_mortality": null,
        "Cetacean_abundance": null,
        "Cetacean_identification": null,
        "Cetacean_mortality": null,
        "Fish_abundance": null,
        "Fish_taxonomy_related_counts": null,
        "Fish_morphology__age_and_physiology": null,
        "Fish_mortality": null,
        "Seal_abundance": null,
        "Seal_behaviour": null,
        "Seal_morphology_and_physiology": null,
        "Seal_mortality": null,
        "Reptile_abundance": null,
        "Reptile_mortality": null,
        "Abundance": null,
        "Composition": null,
        "Concentration": null,
        "Concentration_1": null,
        "Concentration_12": null,
        "Faecal_indicator_bacteria": null,
        "Bathymetry": null,
        "Topography": null,
        "Erosion": null,
        "Mean_high_water_springs": null,
        "Vegetation_edge": null,
        "Cliff_position": null,
        "Beach_volume": null,
        "Channel_morphology": null
      }
    },
    {
      "type": "Feature",
      "geometry": {
        "type": "Point",
        "coordinates": [
          -5.5,
          56.62
        ]
      },
      "properties": {
        "Monitoring_programme": "SEPA Tide Gauge Network",
        "Station_ID": "Kingairloch Tide Gauge",
        "Start_date": 2013,
        "End_date": "Present",
        "Frequency": 15,
        "Organisation": "SEPA",
        "URL": "https://waterlevels.sepa.org.uk/Station/494728/",
        "Notes": null,
        "Sea_level": 1,
        "Tide_regime": 1,
        "Wave_height": null,
        "Wave_period": null,
        "Wave_direction": null,
        "Currents": null,
        "Temperature": null,
        "Salinity": null,
        "Turbidity": null,
        "Suspended_sediment_concentation": null,
        "Fluorecnce": null,
        "Chlorophyll": null,
        "PAR_irradiance": null,
        "Alkalinity__acidity__pH": null,
        "Dissolved_inorganic_phosphorus": null,
        "Dissolved_inorganic_silicate": null,
        "Total_oxidised_nitrogen": null,
        "Ammonia_concentration": null,
        "Nitrate": null,
        "Dissolved_oxygen": null,
        "Carbon_concentrations_in_sediment": null,
        "Nitrogen_concentrations_in_sediment": null,
        "Sediment_grain_size": null,
        "Air_pressure": null,
        "Air_temperature": null,
        "Atmospheric_humidity": null,
        "Atmospheric_visability_and_transparency": null,
        "Cloud_cover__height_and_extent": null,
        "Cloud_type": null,
        "Wind_speed": null,
        "Wind_direction": null,
        "Habitat_characterisation": null,
        "Habitat_extent": null,
        "Habitat_condition": null,
        "Phytoplankton_adundance": null,
        "Phytoplankton_toxins": null,
        "Phytoplankton_taxonomy": null,
        "Seagrass_abundance": null,
        "Macroalgae_abundance": null,
        "Macroalgae_taxonomy": null,
        "Zooplankton_abundance": null,
        "Zooplankton_taxonomy": null,
        "Zoobenthos_abundance": null,
        "Zoobenthos_taxonomy": null,
        "Macroinvertabrates___abundance": null,
        "Mussels___morphology": null,
        "Bird_abundance": null,
        "Birds_taxonomy": null,
        "Birds_mortality": null,
        "Cetacean_abundance": null,
        "Cetacean_identification": null,
        "Cetacean_mortality": null,
        "Fish_abundance": null,
        "Fish_taxonomy_related_counts": null,
        "Fish_morphology__age_and_physiology": null,
        "Fish_mortality": null,
        "Seal_abundance": null,
        "Seal_behaviour": null,
        "Seal_morphology_and_physiology": null,
        "Seal_mortality": null,
        "Reptile_abundance": null,
        "Reptile_mortality": null,
        "Abundance": null,
        "Composition": null,
        "Concentration": null,
        "Concentration_1": null,
        "Concentration_12": null,
        "Faecal_indicator_bacteria": null,
        "Bathymetry": null,
        "Topography": null,
        "Erosion": null,
        "Mean_high_water_springs": null,
        "Vegetation_edge": null,
        "Cliff_position": null,
        "Beach_volume": null,
        "Channel_morphology": null
      }
    },
    {
      "type": "Feature",
      "geometry": {
        "type": "Point",
        "coordinates": [
          -3.11,
          57.67
        ]
      },
      "properties": {
        "Monitoring_programme": "SEPA Tide Gauge Network",
        "Station_ID": "Kingston Tide Gauge",
        "Start_date": 2014,
        "End_date": "Present",
        "Frequency": 15,
        "Organisation": "SEPA",
        "URL": "https://waterlevels.sepa.org.uk/Station/503411/",
        "Notes": null,
        "Sea_level": 1,
        "Tide_regime": 1,
        "Wave_height": null,
        "Wave_period": null,
        "Wave_direction": null,
        "Currents": null,
        "Temperature": null,
        "Salinity": null,
        "Turbidity": null,
        "Suspended_sediment_concentation": null,
        "Fluorecnce": null,
        "Chlorophyll": null,
        "PAR_irradiance": null,
        "Alkalinity__acidity__pH": null,
        "Dissolved_inorganic_phosphorus": null,
        "Dissolved_inorganic_silicate": null,
        "Total_oxidised_nitrogen": null,
        "Ammonia_concentration": null,
        "Nitrate": null,
        "Dissolved_oxygen": null,
        "Carbon_concentrations_in_sediment": null,
        "Nitrogen_concentrations_in_sediment": null,
        "Sediment_grain_size": null,
        "Air_pressure": null,
        "Air_temperature": null,
        "Atmospheric_humidity": null,
        "Atmospheric_visability_and_transparency": null,
        "Cloud_cover__height_and_extent": null,
        "Cloud_type": null,
        "Wind_speed": null,
        "Wind_direction": null,
        "Habitat_characterisation": null,
        "Habitat_extent": null,
        "Habitat_condition": null,
        "Phytoplankton_adundance": null,
        "Phytoplankton_toxins": null,
        "Phytoplankton_taxonomy": null,
        "Seagrass_abundance": null,
        "Macroalgae_abundance": null,
        "Macroalgae_taxonomy": null,
        "Zooplankton_abundance": null,
        "Zooplankton_taxonomy": null,
        "Zoobenthos_abundance": null,
        "Zoobenthos_taxonomy": null,
        "Macroinvertabrates___abundance": null,
        "Mussels___morphology": null,
        "Bird_abundance": null,
        "Birds_taxonomy": null,
        "Birds_mortality": null,
        "Cetacean_abundance": null,
        "Cetacean_identification": null,
        "Cetacean_mortality": null,
        "Fish_abundance": null,
        "Fish_taxonomy_related_counts": null,
        "Fish_morphology__age_and_physiology": null,
        "Fish_mortality": null,
        "Seal_abundance": null,
        "Seal_behaviour": null,
        "Seal_morphology_and_physiology": null,
        "Seal_mortality": null,
        "Reptile_abundance": null,
        "Reptile_mortality": null,
        "Abundance": null,
        "Composition": null,
        "Concentration": null,
        "Concentration_1": null,
        "Concentration_12": null,
        "Faecal_indicator_bacteria": null,
        "Bathymetry": null,
        "Topography": null,
        "Erosion": null,
        "Mean_high_water_springs": null,
        "Vegetation_edge": null,
        "Cliff_position": null,
        "Beach_volume": null,
        "Channel_morphology": null
      }
    },
    {
      "type": "Feature",
      "geometry": {
        "type": "Point",
        "coordinates": [
          -4.06,
          54.79
        ]
      },
      "properties": {
        "Monitoring_programme": "SEPA Tide Gauge Network",
        "Station_ID": "Kirkcudbright Bay Tide Gauge",
        "Start_date": 2014,
        "End_date": "Present",
        "Frequency": 15,
        "Organisation": "SEPA",
        "URL": "https://waterlevels.sepa.org.uk/Station/506171/",
        "Notes": null,
        "Sea_level": 1,
        "Tide_regime": 1,
        "Wave_height": null,
        "Wave_period": null,
        "Wave_direction": null,
        "Currents": null,
        "Temperature": null,
        "Salinity": null,
        "Turbidity": null,
        "Suspended_sediment_concentation": null,
        "Fluorecnce": null,
        "Chlorophyll": null,
        "PAR_irradiance": null,
        "Alkalinity__acidity__pH": null,
        "Dissolved_inorganic_phosphorus": null,
        "Dissolved_inorganic_silicate": null,
        "Total_oxidised_nitrogen": null,
        "Ammonia_concentration": null,
        "Nitrate": null,
        "Dissolved_oxygen": null,
        "Carbon_concentrations_in_sediment": null,
        "Nitrogen_concentrations_in_sediment": null,
        "Sediment_grain_size": null,
        "Air_pressure": null,
        "Air_temperature": null,
        "Atmospheric_humidity": null,
        "Atmospheric_visability_and_transparency": null,
        "Cloud_cover__height_and_extent": null,
        "Cloud_type": null,
        "Wind_speed": null,
        "Wind_direction": null,
        "Habitat_characterisation": null,
        "Habitat_extent": null,
        "Habitat_condition": null,
        "Phytoplankton_adundance": null,
        "Phytoplankton_toxins": null,
        "Phytoplankton_taxonomy": null,
        "Seagrass_abundance": null,
        "Macroalgae_abundance": null,
        "Macroalgae_taxonomy": null,
        "Zooplankton_abundance": null,
        "Zooplankton_taxonomy": null,
        "Zoobenthos_abundance": null,
        "Zoobenthos_taxonomy": null,
        "Macroinvertabrates___abundance": null,
        "Mussels___morphology": null,
        "Bird_abundance": null,
        "Birds_taxonomy": null,
        "Birds_mortality": null,
        "Cetacean_abundance": null,
        "Cetacean_identification": null,
        "Cetacean_mortality": null,
        "Fish_abundance": null,
        "Fish_taxonomy_related_counts": null,
        "Fish_morphology__age_and_physiology": null,
        "Fish_mortality": null,
        "Seal_abundance": null,
        "Seal_behaviour": null,
        "Seal_morphology_and_physiology": null,
        "Seal_mortality": null,
        "Reptile_abundance": null,
        "Reptile_mortality": null,
        "Abundance": null,
        "Composition": null,
        "Concentration": null,
        "Concentration_1": null,
        "Concentration_12": null,
        "Faecal_indicator_bacteria": null,
        "Bathymetry": null,
        "Topography": null,
        "Erosion": null,
        "Mean_high_water_springs": null,
        "Vegetation_edge": null,
        "Cliff_position": null,
        "Beach_volume": null,
        "Channel_morphology": null
      }
    },
    {
      "type": "Feature",
      "geometry": {
        "type": "Point",
        "coordinates": [
          -2.96,
          58.99
        ]
      },
      "properties": {
        "Monitoring_programme": "SEPA Tide Gauge Network",
        "Station_ID": "Kirkwall Tide Gauge",
        "Start_date": 2017,
        "End_date": "Present",
        "Frequency": 15,
        "Organisation": "SEPA",
        "URL": "https://waterlevels.sepa.org.uk/Station/536545/",
        "Notes": null,
        "Sea_level": 1,
        "Tide_regime": 1,
        "Wave_height": null,
        "Wave_period": null,
        "Wave_direction": null,
        "Currents": null,
        "Temperature": null,
        "Salinity": null,
        "Turbidity": null,
        "Suspended_sediment_concentation": null,
        "Fluorecnce": null,
        "Chlorophyll": null,
        "PAR_irradiance": null,
        "Alkalinity__acidity__pH": null,
        "Dissolved_inorganic_phosphorus": null,
        "Dissolved_inorganic_silicate": null,
        "Total_oxidised_nitrogen": null,
        "Ammonia_concentration": null,
        "Nitrate": null,
        "Dissolved_oxygen": null,
        "Carbon_concentrations_in_sediment": null,
        "Nitrogen_concentrations_in_sediment": null,
        "Sediment_grain_size": null,
        "Air_pressure": null,
        "Air_temperature": null,
        "Atmospheric_humidity": null,
        "Atmospheric_visability_and_transparency": null,
        "Cloud_cover__height_and_extent": null,
        "Cloud_type": null,
        "Wind_speed": null,
        "Wind_direction": null,
        "Habitat_characterisation": null,
        "Habitat_extent": null,
        "Habitat_condition": null,
        "Phytoplankton_adundance": null,
        "Phytoplankton_toxins": null,
        "Phytoplankton_taxonomy": null,
        "Seagrass_abundance": null,
        "Macroalgae_abundance": null,
        "Macroalgae_taxonomy": null,
        "Zooplankton_abundance": null,
        "Zooplankton_taxonomy": null,
        "Zoobenthos_abundance": null,
        "Zoobenthos_taxonomy": null,
        "Macroinvertabrates___abundance": null,
        "Mussels___morphology": null,
        "Bird_abundance": null,
        "Birds_taxonomy": null,
        "Birds_mortality": null,
        "Cetacean_abundance": null,
        "Cetacean_identification": null,
        "Cetacean_mortality": null,
        "Fish_abundance": null,
        "Fish_taxonomy_related_counts": null,
        "Fish_morphology__age_and_physiology": null,
        "Fish_mortality": null,
        "Seal_abundance": null,
        "Seal_behaviour": null,
        "Seal_morphology_and_physiology": null,
        "Seal_mortality": null,
        "Reptile_abundance": null,
        "Reptile_mortality": null,
        "Abundance": null,
        "Composition": null,
        "Concentration": null,
        "Concentration_1": null,
        "Concentration_12": null,
        "Faecal_indicator_bacteria": null,
        "Bathymetry": null,
        "Topography": null,
        "Erosion": null,
        "Mean_high_water_springs": null,
        "Vegetation_edge": null,
        "Cliff_position": null,
        "Beach_volume": null,
        "Channel_morphology": null
      }
    },
    {
      "type": "Feature",
      "geometry": {
        "type": "Point",
        "coordinates": [
          -4.38,
          55.89
        ]
      },
      "properties": {
        "Monitoring_programme": "SEPA Tide Gauge Network",
        "Station_ID": "Renfrew Tide Gauge",
        "Start_date": 1998,
        "End_date": "Present",
        "Frequency": 15,
        "Organisation": "SEPA",
        "URL": "https://waterlevels.sepa.org.uk/Station/133138/",
        "Notes": null,
        "Sea_level": 1,
        "Tide_regime": 1,
        "Wave_height": null,
        "Wave_period": null,
        "Wave_direction": null,
        "Currents": null,
        "Temperature": null,
        "Salinity": null,
        "Turbidity": null,
        "Suspended_sediment_concentation": null,
        "Fluorecnce": null,
        "Chlorophyll": null,
        "PAR_irradiance": null,
        "Alkalinity__acidity__pH": null,
        "Dissolved_inorganic_phosphorus": null,
        "Dissolved_inorganic_silicate": null,
        "Total_oxidised_nitrogen": null,
        "Ammonia_concentration": null,
        "Nitrate": null,
        "Dissolved_oxygen": null,
        "Carbon_concentrations_in_sediment": null,
        "Nitrogen_concentrations_in_sediment": null,
        "Sediment_grain_size": null,
        "Air_pressure": null,
        "Air_temperature": null,
        "Atmospheric_humidity": null,
        "Atmospheric_visability_and_transparency": null,
        "Cloud_cover__height_and_extent": null,
        "Cloud_type": null,
        "Wind_speed": null,
        "Wind_direction": null,
        "Habitat_characterisation": null,
        "Habitat_extent": null,
        "Habitat_condition": null,
        "Phytoplankton_adundance": null,
        "Phytoplankton_toxins": null,
        "Phytoplankton_taxonomy": null,
        "Seagrass_abundance": null,
        "Macroalgae_abundance": null,
        "Macroalgae_taxonomy": null,
        "Zooplankton_abundance": null,
        "Zooplankton_taxonomy": null,
        "Zoobenthos_abundance": null,
        "Zoobenthos_taxonomy": null,
        "Macroinvertabrates___abundance": null,
        "Mussels___morphology": null,
        "Bird_abundance": null,
        "Birds_taxonomy": null,
        "Birds_mortality": null,
        "Cetacean_abundance": null,
        "Cetacean_identification": null,
        "Cetacean_mortality": null,
        "Fish_abundance": null,
        "Fish_taxonomy_related_counts": null,
        "Fish_morphology__age_and_physiology": null,
        "Fish_mortality": null,
        "Seal_abundance": null,
        "Seal_behaviour": null,
        "Seal_morphology_and_physiology": null,
        "Seal_mortality": null,
        "Reptile_abundance": null,
        "Reptile_mortality": null,
        "Abundance": null,
        "Composition": null,
        "Concentration": null,
        "Concentration_1": null,
        "Concentration_12": null,
        "Faecal_indicator_bacteria": null,
        "Bathymetry": null,
        "Topography": null,
        "Erosion": null,
        "Mean_high_water_springs": null,
        "Vegetation_edge": null,
        "Cliff_position": null,
        "Beach_volume": null,
        "Channel_morphology": null
      }
    },
    {
      "type": "Feature",
      "geometry": {
        "type": "Point",
        "coordinates": [
          -5.05,
          55.84
        ]
      },
      "properties": {
        "Monitoring_programme": "SEPA Tide Gauge Network",
        "Station_ID": "Rothesay Tide Gauge",
        "Start_date": 1996,
        "End_date": "Present",
        "Frequency": 15,
        "Organisation": "SEPA",
        "URL": "https://waterlevels.sepa.org.uk/Station/133139/",
        "Notes": null,
        "Sea_level": 1,
        "Tide_regime": 1,
        "Wave_height": null,
        "Wave_period": null,
        "Wave_direction": null,
        "Currents": null,
        "Temperature": null,
        "Salinity": null,
        "Turbidity": null,
        "Suspended_sediment_concentation": null,
        "Fluorecnce": null,
        "Chlorophyll": null,
        "PAR_irradiance": null,
        "Alkalinity__acidity__pH": null,
        "Dissolved_inorganic_phosphorus": null,
        "Dissolved_inorganic_silicate": null,
        "Total_oxidised_nitrogen": null,
        "Ammonia_concentration": null,
        "Nitrate": null,
        "Dissolved_oxygen": null,
        "Carbon_concentrations_in_sediment": null,
        "Nitrogen_concentrations_in_sediment": null,
        "Sediment_grain_size": null,
        "Air_pressure": null,
        "Air_temperature": null,
        "Atmospheric_humidity": null,
        "Atmospheric_visability_and_transparency": null,
        "Cloud_cover__height_and_extent": null,
        "Cloud_type": null,
        "Wind_speed": null,
        "Wind_direction": null,
        "Habitat_characterisation": null,
        "Habitat_extent": null,
        "Habitat_condition": null,
        "Phytoplankton_adundance": null,
        "Phytoplankton_toxins": null,
        "Phytoplankton_taxonomy": null,
        "Seagrass_abundance": null,
        "Macroalgae_abundance": null,
        "Macroalgae_taxonomy": null,
        "Zooplankton_abundance": null,
        "Zooplankton_taxonomy": null,
        "Zoobenthos_abundance": null,
        "Zoobenthos_taxonomy": null,
        "Macroinvertabrates___abundance": null,
        "Mussels___morphology": null,
        "Bird_abundance": null,
        "Birds_taxonomy": null,
        "Birds_mortality": null,
        "Cetacean_abundance": null,
        "Cetacean_identification": null,
        "Cetacean_mortality": null,
        "Fish_abundance": null,
        "Fish_taxonomy_related_counts": null,
        "Fish_morphology__age_and_physiology": null,
        "Fish_mortality": null,
        "Seal_abundance": null,
        "Seal_behaviour": null,
        "Seal_morphology_and_physiology": null,
        "Seal_mortality": null,
        "Reptile_abundance": null,
        "Reptile_mortality": null,
        "Abundance": null,
        "Composition": null,
        "Concentration": null,
        "Concentration_1": null,
        "Concentration_12": null,
        "Faecal_indicator_bacteria": null,
        "Bathymetry": null,
        "Topography": null,
        "Erosion": null,
        "Mean_high_water_springs": null,
        "Vegetation_edge": null,
        "Cliff_position": null,
        "Beach_volume": null,
        "Channel_morphology": null
      }
    },
    {
      "type": "Feature",
      "geometry": {
        "type": "Point",
        "coordinates": [
          -5.03,
          54.91
        ]
      },
      "properties": {
        "Monitoring_programme": "SEPA Tide Gauge Network",
        "Station_ID": "Stranraer Tide Gauge",
        "Start_date": 2018,
        "End_date": "Present",
        "Frequency": 15,
        "Organisation": "SEPA",
        "URL": "https://waterlevels.sepa.org.uk/Station/557485/",
        "Notes": null,
        "Sea_level": 1,
        "Tide_regime": 1,
        "Wave_height": null,
        "Wave_period": null,
        "Wave_direction": null,
        "Currents": null,
        "Temperature": null,
        "Salinity": null,
        "Turbidity": null,
        "Suspended_sediment_concentation": null,
        "Fluorecnce": null,
        "Chlorophyll": null,
        "PAR_irradiance": null,
        "Alkalinity__acidity__pH": null,
        "Dissolved_inorganic_phosphorus": null,
        "Dissolved_inorganic_silicate": null,
        "Total_oxidised_nitrogen": null,
        "Ammonia_concentration": null,
        "Nitrate": null,
        "Dissolved_oxygen": null,
        "Carbon_concentrations_in_sediment": null,
        "Nitrogen_concentrations_in_sediment": null,
        "Sediment_grain_size": null,
        "Air_pressure": null,
        "Air_temperature": null,
        "Atmospheric_humidity": null,
        "Atmospheric_visability_and_transparency": null,
        "Cloud_cover__height_and_extent": null,
        "Cloud_type": null,
        "Wind_speed": null,
        "Wind_direction": null,
        "Habitat_characterisation": null,
        "Habitat_extent": null,
        "Habitat_condition": null,
        "Phytoplankton_adundance": null,
        "Phytoplankton_toxins": null,
        "Phytoplankton_taxonomy": null,
        "Seagrass_abundance": null,
        "Macroalgae_abundance": null,
        "Macroalgae_taxonomy": null,
        "Zooplankton_abundance": null,
        "Zooplankton_taxonomy": null,
        "Zoobenthos_abundance": null,
        "Zoobenthos_taxonomy": null,
        "Macroinvertabrates___abundance": null,
        "Mussels___morphology": null,
        "Bird_abundance": null,
        "Birds_taxonomy": null,
        "Birds_mortality": null,
        "Cetacean_abundance": null,
        "Cetacean_identification": null,
        "Cetacean_mortality": null,
        "Fish_abundance": null,
        "Fish_taxonomy_related_counts": null,
        "Fish_morphology__age_and_physiology": null,
        "Fish_mortality": null,
        "Seal_abundance": null,
        "Seal_behaviour": null,
        "Seal_morphology_and_physiology": null,
        "Seal_mortality": null,
        "Reptile_abundance": null,
        "Reptile_mortality": null,
        "Abundance": null,
        "Composition": null,
        "Concentration": null,
        "Concentration_1": null,
        "Concentration_12": null,
        "Faecal_indicator_bacteria": null,
        "Bathymetry": null,
        "Topography": null,
        "Erosion": null,
        "Mean_high_water_springs": null,
        "Vegetation_edge": null,
        "Cliff_position": null,
        "Beach_volume": null,
        "Channel_morphology": null
      }
    },
    {
      "type": "Feature",
      "geometry": {
        "type": "Point",
        "coordinates": [
          -3.3,
          58.96
        ]
      },
      "properties": {
        "Monitoring_programme": "SEPA Tide Gauge Network",
        "Station_ID": "\tStromness Tide Gauge",
        "Start_date": 2017,
        "End_date": "Present",
        "Frequency": 15,
        "Organisation": "SEPA",
        "URL": "https://waterlevels.sepa.org.uk/Station/536544/",
        "Notes": null,
        "Sea_level": 1,
        "Tide_regime": 1,
        "Wave_height": null,
        "Wave_period": null,
        "Wave_direction": null,
        "Currents": null,
        "Temperature": null,
        "Salinity": null,
        "Turbidity": null,
        "Suspended_sediment_concentation": null,
        "Fluorecnce": null,
        "Chlorophyll": null,
        "PAR_irradiance": null,
        "Alkalinity__acidity__pH": null,
        "Dissolved_inorganic_phosphorus": null,
        "Dissolved_inorganic_silicate": null,
        "Total_oxidised_nitrogen": null,
        "Ammonia_concentration": null,
        "Nitrate": null,
        "Dissolved_oxygen": null,
        "Carbon_concentrations_in_sediment": null,
        "Nitrogen_concentrations_in_sediment": null,
        "Sediment_grain_size": null,
        "Air_pressure": null,
        "Air_temperature": null,
        "Atmospheric_humidity": null,
        "Atmospheric_visability_and_transparency": null,
        "Cloud_cover__height_and_extent": null,
        "Cloud_type": null,
        "Wind_speed": null,
        "Wind_direction": null,
        "Habitat_characterisation": null,
        "Habitat_extent": null,
        "Habitat_condition": null,
        "Phytoplankton_adundance": null,
        "Phytoplankton_toxins": null,
        "Phytoplankton_taxonomy": null,
        "Seagrass_abundance": null,
        "Macroalgae_abundance": null,
        "Macroalgae_taxonomy": null,
        "Zooplankton_abundance": null,
        "Zooplankton_taxonomy": null,
        "Zoobenthos_abundance": null,
        "Zoobenthos_taxonomy": null,
        "Macroinvertabrates___abundance": null,
        "Mussels___morphology": null,
        "Bird_abundance": null,
        "Birds_taxonomy": null,
        "Birds_mortality": null,
        "Cetacean_abundance": null,
        "Cetacean_identification": null,
        "Cetacean_mortality": null,
        "Fish_abundance": null,
        "Fish_taxonomy_related_counts": null,
        "Fish_morphology__age_and_physiology": null,
        "Fish_mortality": null,
        "Seal_abundance": null,
        "Seal_behaviour": null,
        "Seal_morphology_and_physiology": null,
        "Seal_mortality": null,
        "Reptile_abundance": null,
        "Reptile_mortality": null,
        "Abundance": null,
        "Composition": null,
        "Concentration": null,
        "Concentration_1": null,
        "Concentration_12": null,
        "Faecal_indicator_bacteria": null,
        "Bathymetry": null,
        "Topography": null,
        "Erosion": null,
        "Mean_high_water_springs": null,
        "Vegetation_edge": null,
        "Cliff_position": null,
        "Beach_volume": null,
        "Channel_morphology": null
      }
    },
    {
      "type": "Feature",
      "geometry": {
        "type": "Point",
        "coordinates": [
          -1.14027,
          60.154056
        ]
      },
      "properties": {
        "Monitoring_programme": "PSMSL GNSS-IR ",
        "Station_ID": "Lerwick",
        "Start_date": 2013,
        "End_date": "Present",
        "Frequency": 15,
        "Organisation": "Permanent Service for Mean Sea Level",
        "URL": "https://psmsl.org/data/gnssir/site.php?id=10048",
        "Notes": null,
        "Sea_level": 1,
        "Tide_regime": 1,
        "Wave_height": null,
        "Wave_period": null,
        "Wave_direction": null,
        "Currents": null,
        "Temperature": null,
        "Salinity": null,
        "Turbidity": null,
        "Suspended_sediment_concentation": null,
        "Fluorecnce": null,
        "Chlorophyll": null,
        "PAR_irradiance": null,
        "Alkalinity__acidity__pH": null,
        "Dissolved_inorganic_phosphorus": null,
        "Dissolved_inorganic_silicate": null,
        "Total_oxidised_nitrogen": null,
        "Ammonia_concentration": null,
        "Nitrate": null,
        "Dissolved_oxygen": null,
        "Carbon_concentrations_in_sediment": null,
        "Nitrogen_concentrations_in_sediment": null,
        "Sediment_grain_size": null,
        "Air_pressure": null,
        "Air_temperature": null,
        "Atmospheric_humidity": null,
        "Atmospheric_visability_and_transparency": null,
        "Cloud_cover__height_and_extent": null,
        "Cloud_type": null,
        "Wind_speed": null,
        "Wind_direction": null,
        "Habitat_characterisation": null,
        "Habitat_extent": null,
        "Habitat_condition": null,
        "Phytoplankton_adundance": null,
        "Phytoplankton_toxins": null,
        "Phytoplankton_taxonomy": null,
        "Seagrass_abundance": null,
        "Macroalgae_abundance": null,
        "Macroalgae_taxonomy": null,
        "Zooplankton_abundance": null,
        "Zooplankton_taxonomy": null,
        "Zoobenthos_abundance": null,
        "Zoobenthos_taxonomy": null,
        "Macroinvertabrates___abundance": null,
        "Mussels___morphology": null,
        "Bird_abundance": null,
        "Birds_taxonomy": null,
        "Birds_mortality": null,
        "Cetacean_abundance": null,
        "Cetacean_identification": null,
        "Cetacean_mortality": null,
        "Fish_abundance": null,
        "Fish_taxonomy_related_counts": null,
        "Fish_morphology__age_and_physiology": null,
        "Fish_mortality": null,
        "Seal_abundance": null,
        "Seal_behaviour": null,
        "Seal_morphology_and_physiology": null,
        "Seal_mortality": null,
        "Reptile_abundance": null,
        "Reptile_mortality": null,
        "Abundance": null,
        "Composition": null,
        "Concentration": null,
        "Concentration_1": null,
        "Concentration_12": null,
        "Faecal_indicator_bacteria": null,
        "Bathymetry": null,
        "Topography": null,
        "Erosion": null,
        "Mean_high_water_springs": null,
        "Vegetation_edge": null,
        "Cliff_position": null,
        "Beach_volume": null,
        "Channel_morphology": null
      }
    },
    {
      "type": "Feature",
      "geometry": {
        "type": "Point",
        "coordinates": [
          -6.38894,
          58.207587
        ]
      },
      "properties": {
        "Monitoring_programme": "PSMSL GNSS-IR ",
        "Station_ID": "Stornoway",
        "Start_date": 2014,
        "End_date": "Present",
        "Frequency": 15,
        "Organisation": "Permanent Service for Mean Sea Level",
        "URL": "https://psmsl.org/data/gnssir/site.php?id=10055",
        "Notes": null,
        "Sea_level": 1,
        "Tide_regime": 1,
        "Wave_height": null,
        "Wave_period": null,
        "Wave_direction": null,
        "Currents": null,
        "Temperature": null,
        "Salinity": null,
        "Turbidity": null,
        "Suspended_sediment_concentation": null,
        "Fluorecnce": null,
        "Chlorophyll": null,
        "PAR_irradiance": null,
        "Alkalinity__acidity__pH": null,
        "Dissolved_inorganic_phosphorus": null,
        "Dissolved_inorganic_silicate": null,
        "Total_oxidised_nitrogen": null,
        "Ammonia_concentration": null,
        "Nitrate": null,
        "Dissolved_oxygen": null,
        "Carbon_concentrations_in_sediment": null,
        "Nitrogen_concentrations_in_sediment": null,
        "Sediment_grain_size": null,
        "Air_pressure": null,
        "Air_temperature": null,
        "Atmospheric_humidity": null,
        "Atmospheric_visability_and_transparency": null,
        "Cloud_cover__height_and_extent": null,
        "Cloud_type": null,
        "Wind_speed": null,
        "Wind_direction": null,
        "Habitat_characterisation": null,
        "Habitat_extent": null,
        "Habitat_condition": null,
        "Phytoplankton_adundance": null,
        "Phytoplankton_toxins": null,
        "Phytoplankton_taxonomy": null,
        "Seagrass_abundance": null,
        "Macroalgae_abundance": null,
        "Macroalgae_taxonomy": null,
        "Zooplankton_abundance": null,
        "Zooplankton_taxonomy": null,
        "Zoobenthos_abundance": null,
        "Zoobenthos_taxonomy": null,
        "Macroinvertabrates___abundance": null,
        "Mussels___morphology": null,
        "Bird_abundance": null,
        "Birds_taxonomy": null,
        "Birds_mortality": null,
        "Cetacean_abundance": null,
        "Cetacean_identification": null,
        "Cetacean_mortality": null,
        "Fish_abundance": null,
        "Fish_taxonomy_related_counts": null,
        "Fish_morphology__age_and_physiology": null,
        "Fish_mortality": null,
        "Seal_abundance": null,
        "Seal_behaviour": null,
        "Seal_morphology_and_physiology": null,
        "Seal_mortality": null,
        "Reptile_abundance": null,
        "Reptile_mortality": null,
        "Abundance": null,
        "Composition": null,
        "Concentration": null,
        "Concentration_1": null,
        "Concentration_12": null,
        "Faecal_indicator_bacteria": null,
        "Bathymetry": null,
        "Topography": null,
        "Erosion": null,
        "Mean_high_water_springs": null,
        "Vegetation_edge": null,
        "Cliff_position": null,
        "Beach_volume": null,
        "Channel_morphology": null
      }
    },
    {
      "type": "Feature",
      "geometry": {
        "type": "Point",
        "coordinates": [
          -5.446065,
          56.013532
        ]
      },
      "properties": {
        "Monitoring_programme": "PSMSL GNSS-IR ",
        "Station_ID": "Loch Gilp",
        "Start_date": 2021,
        "End_date": "Present",
        "Frequency": 15,
        "Organisation": "Permanent Service for Mean Sea Level",
        "URL": "https://psmsl.org/data/gnssir/site.php?id=10456",
        "Notes": null,
        "Sea_level": 1,
        "Tide_regime": 1,
        "Wave_height": null,
        "Wave_period": null,
        "Wave_direction": null,
        "Currents": null,
        "Temperature": null,
        "Salinity": null,
        "Turbidity": null,
        "Suspended_sediment_concentation": null,
        "Fluorecnce": null,
        "Chlorophyll": null,
        "PAR_irradiance": null,
        "Alkalinity__acidity__pH": null,
        "Dissolved_inorganic_phosphorus": null,
        "Dissolved_inorganic_silicate": null,
        "Total_oxidised_nitrogen": null,
        "Ammonia_concentration": null,
        "Nitrate": null,
        "Dissolved_oxygen": null,
        "Carbon_concentrations_in_sediment": null,
        "Nitrogen_concentrations_in_sediment": null,
        "Sediment_grain_size": null,
        "Air_pressure": null,
        "Air_temperature": null,
        "Atmospheric_humidity": null,
        "Atmospheric_visability_and_transparency": null,
        "Cloud_cover__height_and_extent": null,
        "Cloud_type": null,
        "Wind_speed": null,
        "Wind_direction": null,
        "Habitat_characterisation": null,
        "Habitat_extent": null,
        "Habitat_condition": null,
        "Phytoplankton_adundance": null,
        "Phytoplankton_toxins": null,
        "Phytoplankton_taxonomy": null,
        "Seagrass_abundance": null,
        "Macroalgae_abundance": null,
        "Macroalgae_taxonomy": null,
        "Zooplankton_abundance": null,
        "Zooplankton_taxonomy": null,
        "Zoobenthos_abundance": null,
        "Zoobenthos_taxonomy": null,
        "Macroinvertabrates___abundance": null,
        "Mussels___morphology": null,
        "Bird_abundance": null,
        "Birds_taxonomy": null,
        "Birds_mortality": null,
        "Cetacean_abundance": null,
        "Cetacean_identification": null,
        "Cetacean_mortality": null,
        "Fish_abundance": null,
        "Fish_taxonomy_related_counts": null,
        "Fish_morphology__age_and_physiology": null,
        "Fish_mortality": null,
        "Seal_abundance": null,
        "Seal_behaviour": null,
        "Seal_morphology_and_physiology": null,
        "Seal_mortality": null,
        "Reptile_abundance": null,
        "Reptile_mortality": null,
        "Abundance": null,
        "Composition": null,
        "Concentration": null,
        "Concentration_1": null,
        "Concentration_12": null,
        "Faecal_indicator_bacteria": null,
        "Bathymetry": null,
        "Topography": null,
        "Erosion": null,
        "Mean_high_water_springs": null,
        "Vegetation_edge": null,
        "Cliff_position": null,
        "Beach_volume": null,
        "Channel_morphology": null
      }
    },
    {
      "type": "Feature",
      "geometry": {
        "type": "Point",
        "coordinates": [
          -5.60193,
          55.42518
        ]
      },
      "properties": {
        "Monitoring_programme": "PSMSL GNSS-IR ",
        "Station_ID": "Campbeltown",
        "Start_date": 2014,
        "End_date": "Present",
        "Frequency": 15,
        "Organisation": "Permanent Service for Mean Sea Level",
        "URL": "https://psmsl.org/data/gnssir/site.php?id=10045",
        "Notes": null,
        "Sea_level": 1,
        "Tide_regime": 1,
        "Wave_height": null,
        "Wave_period": null,
        "Wave_direction": null,
        "Currents": null,
        "Temperature": null,
        "Salinity": null,
        "Turbidity": null,
        "Suspended_sediment_concentation": null,
        "Fluorecnce": null,
        "Chlorophyll": null,
        "PAR_irradiance": null,
        "Alkalinity__acidity__pH": null,
        "Dissolved_inorganic_phosphorus": null,
        "Dissolved_inorganic_silicate": null,
        "Total_oxidised_nitrogen": null,
        "Ammonia_concentration": null,
        "Nitrate": null,
        "Dissolved_oxygen": null,
        "Carbon_concentrations_in_sediment": null,
        "Nitrogen_concentrations_in_sediment": null,
        "Sediment_grain_size": null,
        "Air_pressure": null,
        "Air_temperature": null,
        "Atmospheric_humidity": null,
        "Atmospheric_visability_and_transparency": null,
        "Cloud_cover__height_and_extent": null,
        "Cloud_type": null,
        "Wind_speed": null,
        "Wind_direction": null,
        "Habitat_characterisation": null,
        "Habitat_extent": null,
        "Habitat_condition": null,
        "Phytoplankton_adundance": null,
        "Phytoplankton_toxins": null,
        "Phytoplankton_taxonomy": null,
        "Seagrass_abundance": null,
        "Macroalgae_abundance": null,
        "Macroalgae_taxonomy": null,
        "Zooplankton_abundance": null,
        "Zooplankton_taxonomy": null,
        "Zoobenthos_abundance": null,
        "Zoobenthos_taxonomy": null,
        "Macroinvertabrates___abundance": null,
        "Mussels___morphology": null,
        "Bird_abundance": null,
        "Birds_taxonomy": null,
        "Birds_mortality": null,
        "Cetacean_abundance": null,
        "Cetacean_identification": null,
        "Cetacean_mortality": null,
        "Fish_abundance": null,
        "Fish_taxonomy_related_counts": null,
        "Fish_morphology__age_and_physiology": null,
        "Fish_mortality": null,
        "Seal_abundance": null,
        "Seal_behaviour": null,
        "Seal_morphology_and_physiology": null,
        "Seal_mortality": null,
        "Reptile_abundance": null,
        "Reptile_mortality": null,
        "Abundance": null,
        "Composition": null,
        "Concentration": null,
        "Concentration_1": null,
        "Concentration_12": null,
        "Faecal_indicator_bacteria": null,
        "Bathymetry": null,
        "Topography": null,
        "Erosion": null,
        "Mean_high_water_springs": null,
        "Vegetation_edge": null,
        "Cliff_position": null,
        "Beach_volume": null,
        "Channel_morphology": null
      }
    },
    {
      "type": "Feature",
      "geometry": {
        "type": "Point",
        "coordinates": [
          -2.128597,
          55.898858
        ]
      },
      "properties": {
        "Monitoring_programme": "PSMSL GNSS-IR ",
        "Station_ID": "St Abbs",
        "Start_date": 2014,
        "End_date": "Present",
        "Frequency": 15,
        "Organisation": "Permanent Service for Mean Sea Level",
        "URL": "https://psmsl.org/data/gnssir/site.php?id=10053",
        "Notes": null,
        "Sea_level": 1,
        "Tide_regime": 1,
        "Wave_height": null,
        "Wave_period": null,
        "Wave_direction": null,
        "Currents": null,
        "Temperature": null,
        "Salinity": null,
        "Turbidity": null,
        "Suspended_sediment_concentation": null,
        "Fluorecnce": null,
        "Chlorophyll": null,
        "PAR_irradiance": null,
        "Alkalinity__acidity__pH": null,
        "Dissolved_inorganic_phosphorus": null,
        "Dissolved_inorganic_silicate": null,
        "Total_oxidised_nitrogen": null,
        "Ammonia_concentration": null,
        "Nitrate": null,
        "Dissolved_oxygen": null,
        "Carbon_concentrations_in_sediment": null,
        "Nitrogen_concentrations_in_sediment": null,
        "Sediment_grain_size": null,
        "Air_pressure": null,
        "Air_temperature": null,
        "Atmospheric_humidity": null,
        "Atmospheric_visability_and_transparency": null,
        "Cloud_cover__height_and_extent": null,
        "Cloud_type": null,
        "Wind_speed": null,
        "Wind_direction": null,
        "Habitat_characterisation": null,
        "Habitat_extent": null,
        "Habitat_condition": null,
        "Phytoplankton_adundance": null,
        "Phytoplankton_toxins": null,
        "Phytoplankton_taxonomy": null,
        "Seagrass_abundance": null,
        "Macroalgae_abundance": null,
        "Macroalgae_taxonomy": null,
        "Zooplankton_abundance": null,
        "Zooplankton_taxonomy": null,
        "Zoobenthos_abundance": null,
        "Zoobenthos_taxonomy": null,
        "Macroinvertabrates___abundance": null,
        "Mussels___morphology": null,
        "Bird_abundance": null,
        "Birds_taxonomy": null,
        "Birds_mortality": null,
        "Cetacean_abundance": null,
        "Cetacean_identification": null,
        "Cetacean_mortality": null,
        "Fish_abundance": null,
        "Fish_taxonomy_related_counts": null,
        "Fish_morphology__age_and_physiology": null,
        "Fish_mortality": null,
        "Seal_abundance": null,
        "Seal_behaviour": null,
        "Seal_morphology_and_physiology": null,
        "Seal_mortality": null,
        "Reptile_abundance": null,
        "Reptile_mortality": null,
        "Abundance": null,
        "Composition": null,
        "Concentration": null,
        "Concentration_1": null,
        "Concentration_12": null,
        "Faecal_indicator_bacteria": null,
        "Bathymetry": null,
        "Topography": null,
        "Erosion": null,
        "Mean_high_water_springs": null,
        "Vegetation_edge": null,
        "Cliff_position": null,
        "Beach_volume": null,
        "Channel_morphology": null
      }
    },
    {
      "type": "Feature",
      "geometry": {
        "type": "Point",
        "coordinates": [
          -2.87732,
          56.46393
        ]
      },
      "properties": {
        "Monitoring_programme": "PSMSL GNSS-IR ",
        "Station_ID": "Dundee",
        "Start_date": 2014,
        "End_date": "Present",
        "Frequency": 15,
        "Organisation": "Permanent Service for Mean Sea Level",
        "URL": "https://psmsl.org/data/gnssir/site.php?id=10046",
        "Notes": null,
        "Sea_level": 1,
        "Tide_regime": 1,
        "Wave_height": null,
        "Wave_period": null,
        "Wave_direction": null,
        "Currents": null,
        "Temperature": null,
        "Salinity": null,
        "Turbidity": null,
        "Suspended_sediment_concentation": null,
        "Fluorecnce": null,
        "Chlorophyll": null,
        "PAR_irradiance": null,
        "Alkalinity__acidity__pH": null,
        "Dissolved_inorganic_phosphorus": null,
        "Dissolved_inorganic_silicate": null,
        "Total_oxidised_nitrogen": null,
        "Ammonia_concentration": null,
        "Nitrate": null,
        "Dissolved_oxygen": null,
        "Carbon_concentrations_in_sediment": null,
        "Nitrogen_concentrations_in_sediment": null,
        "Sediment_grain_size": null,
        "Air_pressure": null,
        "Air_temperature": null,
        "Atmospheric_humidity": null,
        "Atmospheric_visability_and_transparency": null,
        "Cloud_cover__height_and_extent": null,
        "Cloud_type": null,
        "Wind_speed": null,
        "Wind_direction": null,
        "Habitat_characterisation": null,
        "Habitat_extent": null,
        "Habitat_condition": null,
        "Phytoplankton_adundance": null,
        "Phytoplankton_toxins": null,
        "Phytoplankton_taxonomy": null,
        "Seagrass_abundance": null,
        "Macroalgae_abundance": null,
        "Macroalgae_taxonomy": null,
        "Zooplankton_abundance": null,
        "Zooplankton_taxonomy": null,
        "Zoobenthos_abundance": null,
        "Zoobenthos_taxonomy": null,
        "Macroinvertabrates___abundance": null,
        "Mussels___morphology": null,
        "Bird_abundance": null,
        "Birds_taxonomy": null,
        "Birds_mortality": null,
        "Cetacean_abundance": null,
        "Cetacean_identification": null,
        "Cetacean_mortality": null,
        "Fish_abundance": null,
        "Fish_taxonomy_related_counts": null,
        "Fish_morphology__age_and_physiology": null,
        "Fish_mortality": null,
        "Seal_abundance": null,
        "Seal_behaviour": null,
        "Seal_morphology_and_physiology": null,
        "Seal_mortality": null,
        "Reptile_abundance": null,
        "Reptile_mortality": null,
        "Abundance": null,
        "Composition": null,
        "Concentration": null,
        "Concentration_1": null,
        "Concentration_12": null,
        "Faecal_indicator_bacteria": null,
        "Bathymetry": null,
        "Topography": null,
        "Erosion": null,
        "Mean_high_water_springs": null,
        "Vegetation_edge": null,
        "Cliff_position": null,
        "Beach_volume": null,
        "Channel_morphology": null
      }
    },
    {
      "type": "Feature",
      "geometry": {
        "type": "Point",
        "coordinates": [
          -2.08022,
          57.144009
        ]
      },
      "properties": {
        "Monitoring_programme": "PSMSL GNSS-IR ",
        "Station_ID": "Aberdeen",
        "Start_date": 2019,
        "End_date": "Present",
        "Frequency": 15,
        "Organisation": "Permanent Service for Mean Sea Level",
        "URL": "https://psmsl.org/data/gnssir/site.php?id=10044",
        "Notes": null,
        "Sea_level": 1,
        "Tide_regime": 1,
        "Wave_height": null,
        "Wave_period": null,
        "Wave_direction": null,
        "Currents": null,
        "Temperature": null,
        "Salinity": null,
        "Turbidity": null,
        "Suspended_sediment_concentation": null,
        "Fluorecnce": null,
        "Chlorophyll": null,
        "PAR_irradiance": null,
        "Alkalinity__acidity__pH": null,
        "Dissolved_inorganic_phosphorus": null,
        "Dissolved_inorganic_silicate": null,
        "Total_oxidised_nitrogen": null,
        "Ammonia_concentration": null,
        "Nitrate": null,
        "Dissolved_oxygen": null,
        "Carbon_concentrations_in_sediment": null,
        "Nitrogen_concentrations_in_sediment": null,
        "Sediment_grain_size": null,
        "Air_pressure": null,
        "Air_temperature": null,
        "Atmospheric_humidity": null,
        "Atmospheric_visability_and_transparency": null,
        "Cloud_cover__height_and_extent": null,
        "Cloud_type": null,
        "Wind_speed": null,
        "Wind_direction": null,
        "Habitat_characterisation": null,
        "Habitat_extent": null,
        "Habitat_condition": null,
        "Phytoplankton_adundance": null,
        "Phytoplankton_toxins": null,
        "Phytoplankton_taxonomy": null,
        "Seagrass_abundance": null,
        "Macroalgae_abundance": null,
        "Macroalgae_taxonomy": null,
        "Zooplankton_abundance": null,
        "Zooplankton_taxonomy": null,
        "Zoobenthos_abundance": null,
        "Zoobenthos_taxonomy": null,
        "Macroinvertabrates___abundance": null,
        "Mussels___morphology": null,
        "Bird_abundance": null,
        "Birds_taxonomy": null,
        "Birds_mortality": null,
        "Cetacean_abundance": null,
        "Cetacean_identification": null,
        "Cetacean_mortality": null,
        "Fish_abundance": null,
        "Fish_taxonomy_related_counts": null,
        "Fish_morphology__age_and_physiology": null,
        "Fish_mortality": null,
        "Seal_abundance": null,
        "Seal_behaviour": null,
        "Seal_morphology_and_physiology": null,
        "Seal_mortality": null,
        "Reptile_abundance": null,
        "Reptile_mortality": null,
        "Abundance": null,
        "Composition": null,
        "Concentration": null,
        "Concentration_1": null,
        "Concentration_12": null,
        "Faecal_indicator_bacteria": null,
        "Bathymetry": null,
        "Topography": null,
        "Erosion": null,
        "Mean_high_water_springs": null,
        "Vegetation_edge": null,
        "Cliff_position": null,
        "Beach_volume": null,
        "Channel_morphology": null
      }
    },
    {
      "type": "Feature",
      "geometry": {
        "type": "Point",
        "coordinates": [
          -3.09,
          58.44
        ]
      },
      "properties": {
        "Monitoring_programme": "PSMSL GNSS-IR ",
        "Station_ID": "Wick",
        "Start_date": 1965,
        "End_date": "Present",
        "Frequency": 15,
        "Organisation": "Permanent Service for Mean Sea Level",
        "URL": null,
        "Notes": null,
        "Sea_level": 1,
        "Tide_regime": 1,
        "Wave_height": null,
        "Wave_period": null,
        "Wave_direction": null,
        "Currents": null,
        "Temperature": null,
        "Salinity": null,
        "Turbidity": null,
        "Suspended_sediment_concentation": null,
        "Fluorecnce": null,
        "Chlorophyll": null,
        "PAR_irradiance": null,
        "Alkalinity__acidity__pH": null,
        "Dissolved_inorganic_phosphorus": null,
        "Dissolved_inorganic_silicate": null,
        "Total_oxidised_nitrogen": null,
        "Ammonia_concentration": null,
        "Nitrate": null,
        "Dissolved_oxygen": null,
        "Carbon_concentrations_in_sediment": null,
        "Nitrogen_concentrations_in_sediment": null,
        "Sediment_grain_size": null,
        "Air_pressure": null,
        "Air_temperature": null,
        "Atmospheric_humidity": null,
        "Atmospheric_visability_and_transparency": null,
        "Cloud_cover__height_and_extent": null,
        "Cloud_type": null,
        "Wind_speed": null,
        "Wind_direction": null,
        "Habitat_characterisation": null,
        "Habitat_extent": null,
        "Habitat_condition": null,
        "Phytoplankton_adundance": null,
        "Phytoplankton_toxins": null,
        "Phytoplankton_taxonomy": null,
        "Seagrass_abundance": null,
        "Macroalgae_abundance": null,
        "Macroalgae_taxonomy": null,
        "Zooplankton_abundance": null,
        "Zooplankton_taxonomy": null,
        "Zoobenthos_abundance": null,
        "Zoobenthos_taxonomy": null,
        "Macroinvertabrates___abundance": null,
        "Mussels___morphology": null,
        "Bird_abundance": null,
        "Birds_taxonomy": null,
        "Birds_mortality": null,
        "Cetacean_abundance": null,
        "Cetacean_identification": null,
        "Cetacean_mortality": null,
        "Fish_abundance": null,
        "Fish_taxonomy_related_counts": null,
        "Fish_morphology__age_and_physiology": null,
        "Fish_mortality": null,
        "Seal_abundance": null,
        "Seal_behaviour": null,
        "Seal_morphology_and_physiology": null,
        "Seal_mortality": null,
        "Reptile_abundance": null,
        "Reptile_mortality": null,
        "Abundance": null,
        "Composition": null,
        "Concentration": null,
        "Concentration_1": null,
        "Concentration_12": null,
        "Faecal_indicator_bacteria": null,
        "Bathymetry": null,
        "Topography": null,
        "Erosion": null,
        "Mean_high_water_springs": null,
        "Vegetation_edge": null,
        "Cliff_position": null,
        "Beach_volume": null,
        "Channel_morphology": null
      }
    }
  ]
}