{
"type": "FeatureCollection",
"name": "UKRI_Policy_Fellowship_Planet_AOIs",
"crs": { "type": "name", "properties": { "name": "urn:ogc:def:crs:OGC:1.3:CRS84" } },
"features": [
{ "type": "Feature", "properties": { "id": 1, "Name": "Spey Bay" }, "geometry": { "type": "MultiPolygon", "coordinates": [ [ [ [ -3.34754809157858, 57.748333054908507 ], [ -3.005315557905145, 57.674649119269233 ], [ -3.005315557905145, 57.674649119269233 ], [ -3.014135265252747, 57.636147870905369 ], [ -3.378015958344298, 57.718518023017282 ], [ -3.34754809157858, 57.748333054908507 ] ] ] ] } },
{ "type": "Feature", "properties": { "id": 2, "Name": "Burnmouth" }, "geometry": { "type": "MultiPolygon", "coordinates": [ [ [ [ -2.067326882942946, 55.85203082111682 ], [ -2.024890446842926, 55.815595388389092 ], [ -2.024890446842926, 55.815595388389092 ], [ -2.044596982871616, 55.806808235009527 ], [ -2.087635912807886, 55.845556157067755 ], [ -2.067326882942946, 55.85203082111682 ] ] ] ] } },
{ "type": "Feature", "properties": { "id": 3, "Name": "Montrose Bay" }, "geometry": { "type": "MultiPolygon", "coordinates": [ [ [ [ -2.36647421252809, 56.773487709881735 ], [ -2.42469446072172, 56.692292846293419 ], [ -2.42469446072172, 56.692292846293419 ], [ -2.476485178918613, 56.692768089652951 ], [ -2.414006950183269, 56.788249091634505 ], [ -2.36647421252809, 56.773487709881735 ] ] ] ] } },
{ "type": "Feature", "properties": { "id": 4, "Name": "St Fergus" }, "geometry": { "type": "MultiPolygon", "coordinates": [ [ [ [ -1.7972887789522, 57.634755754752888 ], [ -1.707316324013388, 57.455021513354595 ], [ -1.707316324013388, 57.455021513354595 ], [ -1.823470405199054, 57.457224482640235 ], [ -1.892492165207719, 57.606381248111006 ], [ -1.7972887789522, 57.634755754752888 ] ] ] ] } },
{ "type": "Feature", "properties": { "id": 5, "Name": "Sanday" }, "geometry": { "type": "MultiPolygon", "coordinates": [ [ [ [ -2.5440099997135, 59.330054218840985 ], [ -2.404633727053226, 59.328243815237904 ], [ -2.404633727053226, 59.328243815237904 ], [ -2.347739842744265, 59.278728839700655 ], [ -2.479474376019006, 59.212068777266602 ], [ -2.715113380289389, 59.175214084638846 ], [ -2.724124380653101, 59.204642182881528 ], [ -2.648140911956033, 59.318316675365374 ], [ -2.5440099997135, 59.330054218840985 ] ] ] ] } },
{ "type": "Feature", "properties": { "id": 6, "Name": "Edinburgh" }, "geometry": { "type": "MultiPolygon", "coordinates": [ [ [ [ -3.178637359334615, 56.006548694188467 ], [ -3.08925867452836, 55.962136262195436 ], [ -3.08925867452836, 55.962136262195436 ], [ -3.019643602166367, 55.96588038373973 ], [ -3.002483004885042, 55.941995954094615 ], [ -3.083981173777536, 55.921256391882125 ], [ -3.175060474675504, 55.9666498662897 ], [ -3.278455758403876, 55.957501140926674 ], [ -3.281257598646356, 55.997571145706033 ], [ -3.178637359334615, 56.006548694188467 ] ] ] ] } },
{ "type": "Feature", "properties": { "id": 7, "Name": "Saltcoats" }, "geometry": { "type": "MultiPolygon", "coordinates": [ [ [ [ -4.823472337257774, 55.66242898405271 ], [ -4.743115574188449, 55.643449640967553 ], [ -4.743115574188449, 55.643449640967553 ], [ -4.681243442436176, 55.615147648431638 ], [ -4.710371209434041, 55.595859035333014 ], [ -4.789815396215351, 55.620100772666106 ], [ -4.837270693366484, 55.632272659884329 ], [ -4.853974508940736, 55.646389520371642 ], [ -4.823472337257774, 55.66242898405271 ] ] ] ] } },
{ "type": "Feature", "properties": { "id": 8, "Name": "Dumbarton" }, "geometry": { "type": "MultiPolygon", "coordinates": [ [ [ [ -4.612300505781803, 55.957089037384655 ], [ -4.446037234528989, 55.934813451064798 ], [ -4.446037234528989, 55.934813451064798 ], [ -4.462997103834681, 55.908951062019938 ], [ -4.629582773632037, 55.924400026088549 ], [ -4.612300505781803, 55.957089037384655 ] ] ] ] } },
{ "type": "Feature", "properties": { "id": 9, "Name": "Dounraey" }, "geometry": { "type": "MultiPolygon", "coordinates": [ [ [ [ -3.82044410163275, 58.573244506818114 ], [ -3.671000984344761, 58.631430327097071 ], [ -3.626948236125219, 58.619902954705317 ], [ -3.800848243517745, 58.549832304655659 ], [ -3.82044410163275, 58.573244506818114 ] ] ] ] } },
{ "type": "Feature", "properties": { "id": 10, "Name": "Barra" }, "geometry": { "type": "MultiPolygon", "coordinates": [ [ [ [ -7.453724912456292, 57.085024027893581 ], [ -7.361010973561477, 57.067794020933015 ], [ -7.277464392632194, 57.011611892555983 ], [ -7.499271103019008, 56.865942562565742 ], [ -7.662587343138076, 56.911737270823046 ], [ -7.662587343138076, 56.911737270823046 ], [ -7.453724912456292, 57.085024027893581 ] ] ] ] } },
{ "type": "Feature", "properties": { "id": 11, "Name": "loch feochan" }, "geometry": { "type": "MultiPolygon", "coordinates": [ [ [ [ -5.541432969841628, 56.36647301249787 ], [ -5.519570568297489, 56.356154189197007 ], [ -5.489919576190502, 56.36826777283769 ], [ -5.479230759622441, 56.362434497122699 ], [ -5.437790159483439, 56.376523630333836 ], [ -5.426677536381442, 56.35925821762126 ], [ -5.524282937684951, 56.33280906360784 ], [ -5.565836939816831, 56.349524223723328 ], [ -5.565836939816831, 56.349524223723328 ], [ -5.541432969841628, 56.36647301249787 ] ] ] ] } },
{ "type": "Feature", "properties": { "id": 12, "Name": "St Andrews" }, "geometry": { "type": "MultiPolygon", "coordinates": [ [ [ [ -2.750283882683786, 56.453694793263395 ], [ -2.747043454475941, 56.313223097181933 ], [ -2.945929432871209, 56.303455620307545 ], [ -2.92989091664723, 56.457583501195693 ], [ -2.92989091664723, 56.457583501195693 ], [ -2.92989091664723, 56.457583501195693 ], [ -2.92989091664723, 56.457583501195693 ], [ -2.92989091664723, 56.457583501195693 ], [ -2.750283882683786, 56.453694793263395 ] ] ] ] } }
]
}
